OBJECT_NAME,OBJECT_ID,EPOCH,MEAN_MOTION,ECCENTRICITY,INCLINATION,RA_OF_ASC_NODE,ARG_OF_PERICENTER,MEAN_ANOMALY,EPHEMERIS_TYPE,CLASSIFICATION_TYPE,NORAD_CAT_ID,ELEMENT_SET_NO,REV_AT_EPOCH,BSTAR,MEAN_MOTION_DOT,MEAN_MOTION_DDOT
STARLINK-35766,2025-303U,2026-07-21T04:22:26.481216,15.27606640,.00010677,43.0012,276.5985,264.8733,95.1996,0,U,67181,999,3315,.42658664E-3,.11504E-3,0
STARLINK-35782,2025-303V,2026-07-21T13:32:33.860256,15.27592306,.00012227,42.9984,274.3036,275.7892,84.2820,0,U,67182,999,3321,.29103948E-3,.7758E-4,0
STARLINK-35719,2025-303W,2026-07-21T13:41:48.983712,15.27592824,.00010064,42.9987,274.3525,273.3554,86.7183,0,U,67183,999,3321,.43873012E-3,.11835E-3,0
STARLINK-35910,2025-303X,2026-07-21T13:27:00.687168,15.27594150,.00015567,42.9986,274.2743,272.0188,88.0485,0,U,67184,999,3321,.45748402E-3,.12353E-3,0
STARLINK-35859,2025-303Y,2026-07-21T13:34:24.841920,15.27598241,.00013537,42.9997,274.3117,270.9741,89.0956,0,U,67185,999,3321,.49300808E-3,.13337E-3,0
STARLINK-35857,2025-303Z,2026-07-21T06:05:50.358912,15.27587599,.00011115,42.9996,276.2757,266.8538,93.2187,0,U,67186,999,3316,.3447245E-3,.9238E-4,0
STARLINK-35880,2025-303AA,2026-07-21T13:45:31.296096,15.27602808,.00010539,42.9998,274.3703,273.1557,86.9174,0,U,67187,999,3321,.80350906E-3,.2193E-3,0
STARLINK-35675,2025-303AB,2026-07-21T11:51:13.056768,15.27597078,.000042,42.9969,275.4961,248.2001,111.8806,0,U,67188,999,3319,.42295752E-3,.11401E-3,0
STARLINK-35889,2025-303AC,2026-07-21T11:41:57.993792,15.27598346,.00013544,43.0000,275.4487,273.7964,86.2733,0,U,67189,999,3319,.40041643E-3,.10779E-3,0
STARLINK-35888,2025-303AD,2026-07-21T13:01:20.553600,15.27585961,.00019192,43.0001,275.0047,278.7830,81.2804,0,U,67190,999,3320,.64609203E-3,.17563E-3,0
STARLINK-35716,2025-303AE,2026-07-22T06:39:14.872608,15.27594970,.00006547,42.9965,271.0538,230.3802,129.6992,0,U,67191,999,3331,.5816328E-3,.15785E-3,0
STARLINK-36182,2025-304A,2026-07-22T03:18:52.823232,14.98341897,.00037848,70.0011,195.4716,264.5865,95.4862,0,U,67192,999,3399,.39784213E-3,.4659E-4,0
STARLINK-36279,2025-304B,2026-07-22T03:12:39.009312,14.98338479,.00039554,70.0012,195.4522,263.6627,96.4082,0,U,67193,999,3402,.3651484E-3,.4268E-4,0
STARLINK-36284,2025-304C,2026-07-22T03:42:40.355136,14.98335947,.00041133,70.0005,195.5285,264.9019,95.1671,0,U,67194,999,3402,.14885722E-3,.1684E-4,0
STARLINK-36291,2025-304D,2026-07-22T04:06:57.271680,14.98333664,.00038836,70.0007,195.5826,264.8858,95.1858,0,U,67195,999,3402,.16901417E-3,.1924E-4,0
STARLINK-36239,2025-304E,2026-07-22T04:00:42.346656,14.98336687,.000398,70.0004,195.5724,262.4726,97.5981,0,U,67196,999,3402,.22328284E-3,.2573E-4,0
STARLINK-36283,2025-304F,2026-07-22T04:24:42.672672,14.98336089,.0003777,70.0004,195.2240,265.7208,94.3519,0,U,67197,999,3403,.28834953E-3,.335E-4,0
STARLINK-36267,2025-304G,2026-07-22T03:30:39.048192,14.98339032,.00038064,70.0011,195.4961,264.2486,95.8239,0,U,67198,999,3399,.27745519E-3,.322E-4,0
STARLINK-36268,2025-304H,2026-07-22T03:42:54.591264,14.98336064,.00038334,70.0002,195.5231,266.6008,93.4713,0,U,67199,999,3401,.13868486E-3,.1562E-4,0
STARLINK-36270,2025-304J,2026-07-22T04:42:59.283936,14.98359764,.00037763,70.0009,195.2755,261.4158,98.6573,0,U,67200,999,3403,.11719695E-2,.1393E-3,0
STARLINK-36262,2025-304K,2026-07-22T03:54:43.089408,14.98338864,.00043803,70.0007,195.5555,265.4203,94.6455,0,U,67201,999,3402,.37376818E-3,.4371E-4,0
STARLINK-36263,2025-304L,2026-07-22T03:36:41.116896,14.98342921,.00034828,70.0008,195.5110,269.3818,90.6942,0,U,67202,999,3402,.36961549E-3,.4321E-4,0
STARLINK-36224,2025-304M,2026-07-22T03:24:38.488896,14.98340314,.00039026,70.0008,195.4734,265.1892,94.8822,0,U,67203,999,3402,.33119932E-3,.3862E-4,0
STARLINK-36185,2025-304N,2026-07-22T04:36:44.477280,14.98336376,.00036315,70.0011,195.2530,264.6938,95.3807,0,U,67204,999,3403,.40485967E-3,.4742E-4,0
STARLINK-36197,2025-304P,2026-07-22T04:18:42.052896,14.98337213,.00037227,70.0004,195.2087,262.7863,97.2873,0,U,67205,999,3400,.28707609E-3,.3335E-4,0
STARLINK-36056,2025-304Q,2026-07-22T03:54:55.893024,14.98337171,.00039786,70.0005,195.5503,263.4809,96.5897,0,U,67206,999,3399,.23956187E-3,.2767E-4,0
STARLINK-36225,2025-304R,2026-07-22T03:30:53.267040,14.98337519,.00039757,70.0010,195.4907,262.6188,97.4519,0,U,67207,999,3402,.19895381E-3,.2282E-4,0
STARLINK-36265,2025-304S,2026-07-22T03:48:41.054400,14.98339037,.00032939,70.0006,195.5409,268.7678,91.3103,0,U,67208,999,3402,.24556627E-3,.2839E-4,0
STARLINK-36226,2025-304T,2026-07-22T04:06:42.962112,14.98335397,.00039358,70.0002,195.5848,263.5928,96.4783,0,U,67209,999,3402,.18203144E-3,.208E-4,0
STARLINK-36173,2025-304U,2026-07-22T03:18:37.917504,14.98338697,.00030741,70.0014,195.4650,268.5508,91.5299,0,U,67210,999,3402,.19603569E-3,.2247E-4,0
