STARLINK-35766          
1 67181U 25303U   26202.18225094  .00011504  00000+0  42659-3 0  9998
2 67181  43.0012 276.5985 0001067 264.8733  95.1996 15.27606640 33152
STARLINK-35782          
1 67182U 25303V   26202.56428079  .00007758  00000+0  29104-3 0  9995
2 67182  42.9984 274.3036 0001222 275.7892  84.2820 15.27592306 33217
STARLINK-35719          
1 67183U 25303W   26202.57070583  .00011835  00000+0  43873-3 0  9990
2 67183  42.9987 274.3525 0001006 273.3554  86.7183 15.27592824 33217
STARLINK-35910          
1 67184U 25303X   26202.56042462  .00012353  00000+0  45748-3 0  9994
2 67184  42.9986 274.2743 0001556 272.0188  88.0485 15.27594150 33211
STARLINK-35859          
1 67185U 25303Y   26202.56556530  .00013337  00000+0  49301-3 0  9993
2 67185  42.9997 274.3117 0001353 270.9741  89.0956 15.27598241 33216
STARLINK-35857          
1 67186U 25303Z   26202.25405508  .00009238  00000+0  34472-3 0  9996
2 67186  42.9996 276.2757 0001111 266.8538  93.2187 15.27587599 33168
STARLINK-35880          
1 67187U 25303AA  26202.57327889  .00021930  00000+0  80351-3 0  9997
2 67187  42.9998 274.3703 0001053 273.1557  86.9174 15.27602808 33210
STARLINK-35675          
1 67188U 25303AB  26202.49390112  .00011401  00000+0  42296-3 0  9996
2 67188  42.9969 275.4961 0000420 248.2001 111.8806 15.27597078 33190
STARLINK-35889          
1 67189U 25303AC  26202.48747678  .00010779  00000+0  40042-3 0  9993
2 67189  43.0000 275.4487 0001354 273.7964  86.2733 15.27598346 33193
STARLINK-35888          
1 67190U 25303AD  26202.54259900  .00017563  00000+0  64609-3 0  9991
2 67190  43.0001 275.0047 0001919 278.7830  81.2804 15.27585961 33203
STARLINK-35716          
1 67191U 25303AE  26203.27725547  .00015785  00000+0  58163-3 0  9990
2 67191  42.9965 271.0538 0000654 230.3802 129.6992 15.27594970 33317
STARLINK-36182          
1 67192U 25304A   26203.13811138  .00004659  00000+0  39784-3 0  9995
2 67192  70.0011 195.4716 0003784 264.5865  95.4862 14.98341897 33999
STARLINK-36279          
1 67193U 25304B   26203.13378483  .00004268  00000+0  36515-3 0  9992
2 67193  70.0012 195.4522 0003955 263.6627  96.4082 14.98338479 34024
STARLINK-36284          
1 67194U 25304C   26203.15463374  .00001684  00000+0  14886-3 0  9995
2 67194  70.0005 195.5285 0004113 264.9019  95.1671 14.98335947 34027
STARLINK-36291          
1 67195U 25304D   26203.17149620  .00001924  00000+0  16901-3 0  9990
2 67195  70.0007 195.5826 0003883 264.8858  95.1858 14.98333664 34025
STARLINK-36239          
1 67196U 25304E   26203.16715679  .00002573  00000+0  22328-3 0  9994
2 67196  70.0004 195.5724 0003980 262.4726  97.5981 14.98336687 34027
STARLINK-36283          
1 67197U 25304F   26203.18382723  .00003350  00000+0  28835-3 0  9990
2 67197  70.0004 195.2240 0003777 265.7208  94.3519 14.98336089 34032
STARLINK-36267          
1 67198U 25304G   26203.14628528  .00003220  00000+0  27746-3 0  9999
2 67198  70.0011 195.4961 0003806 264.2486  95.8239 14.98339032 33998
STARLINK-36268          
1 67199U 25304H   26203.15479851  .00001562  00000+0  13868-3 0  9991
2 67199  70.0002 195.5231 0003833 266.6008  93.4713 14.98336064 34013
STARLINK-36270          
1 67200U 25304J   26203.19651949  .00013930  00000+0  11720-2 0  9994
2 67200  70.0009 195.2755 0003776 261.4158  98.6573 14.98359764 34031
STARLINK-36262          
1 67201U 25304K   26203.16299872  .00004371  00000+0  37377-3 0  9991
2 67201  70.0007 195.5555 0004380 265.4203  94.6455 14.98338864 34020
STARLINK-36263          
1 67202U 25304L   26203.15047589  .00004321  00000+0  36962-3 0  9991
2 67202  70.0008 195.5110 0003482 269.3818  90.6942 14.98342921 34022
STARLINK-36224          
1 67203U 25304M   26203.14211214  .00003862  00000+0  33120-3 0  9991
2 67203  70.0008 195.4734 0003902 265.1892  94.8822 14.98340314 34024
STARLINK-36185          
1 67204U 25304N   26203.19218145  .00004742  00000+0  40486-3 0  9998
2 67204  70.0011 195.2530 0003631 264.6938  95.3807 14.98336376 34038
STARLINK-36197          
1 67205U 25304P   26203.17965339  .00003335  00000+0  28708-3 0  9991
2 67205  70.0004 195.2087 0003722 262.7863  97.2873 14.98337213 34007
STARLINK-36056          
1 67206U 25304Q   26203.16314691  .00002767  00000+0  23956-3 0  9998
2 67206  70.0005 195.5503 0003978 263.4809  96.5897 14.98337171 33994
STARLINK-36225          
1 67207U 25304R   26203.14644985  .00002282  00000+0  19895-3 0  9998
2 67207  70.0010 195.4907 0003975 262.6188  97.4519 14.98337519 34028
STARLINK-36265          
1 67208U 25304S   26203.15880850  .00002839  00000+0  24557-3 0  9992
2 67208  70.0006 195.5409 0003293 268.7678  91.3103 14.98339037 34025
STARLINK-36226          
1 67209U 25304T   26203.17133058  .00002080  00000+0  18203-3 0  9995
2 67209  70.0002 195.5848 0003935 263.5928  96.4783 14.98335397 34028
STARLINK-36173          
1 67210U 25304U   26203.13793886  .00002247  00000+0  19604-3 0  9995
2 67210  70.0014 195.4650 0003074 268.5508  91.5299 14.98338697 34020
